STARLINK-5308           
1 55300U 23010AH  26080.50855166  .00000818  00000+0  76320-4 0  9999
2 55300  70.0003 354.4920 0002916 269.8795  90.2030 14.98336423175040
STARLINK-5321           
1 55302U 23010AK  26080.45431087 -.00001757  00000+0 -13943-3 0  9993
2 55302  70.0003 354.7020 0003036 270.6940  89.3871 14.98343506175033
STARLINK-5322           
1 55303U 23010AL  26080.52547914  .00001265  00000+0  11372-3 0  9995
2 55303  70.0011  14.4168 0002904 268.1543  91.9284 14.98341264174552
STARLINK-5318           
1 55304U 23010AM  26080.50437672  .00001076  00000+0  97911-4 0  9997
2 55304  70.0003 354.4767 0002835 270.7312  89.3522 14.98338272175048
STARLINK-5316           
1 55305U 23010AN  26080.16643794 -.00000749  00000+0 -54993-4 0  9995
2 55305  70.0001 355.7087 0002355 266.8122  93.2767 14.98340101174990
STARLINK-5295           
1 55306U 23010AP  26080.40402921  .00000685  00000+0  65204-4 0  9992
2 55306  69.9998 335.0567 0002831 271.9922  88.0913 14.98335452175529
STARLINK-5288           
1 55307U 23010AQ  26080.40820290  .00000998  00000+0  91399-4 0  9997
2 55307  69.9998 335.0723 0002884 269.8841  90.1988 14.98339897175521
STARLINK-5315           
1 55309U 23010AS  26080.09108323  .00001588  00000+0  14079-3 0  9995
2 55309  70.0003 335.5695 0002830 266.9913  93.0922 14.98340485175485
STARLINK-5309           
1 55310U 23010AT  26080.12864425  .00000152  00000+0  20506-4 0  9992
2 55310  69.9999 335.6992 0002595 266.0029  94.0833 14.98337945175485
STARLINK-5312           
1 55311U 23010AU  26080.39985110  .00001285  00000+0  11545-3 0  9997
2 55311  69.9998 335.0415 0002678 271.1973  88.8879 14.98337668176390
STARLINK-5296           
1 55312U 23010AV  26080.50001157  .00048398  00000+0  40383-2 0  9998
2 55312  70.0014 334.5000 0002936 268.0057  69.7666 14.98308507  5643
STARLINK-5313           
1 55313U 23010AW  26080.45409290  .00000610  00000+0  58864-4 0  9993
2 55313  70.0002 334.8280 0002838 269.9602  90.1232 14.98334962176405
STARLINK-5305           
1 55314U 23010AX  26080.05770955  .00000663  00000+0  63370-4 0  9995
2 55314  69.9999 335.8514 0002918 269.6217  90.4608 14.98332703176341
STARLINK-4623           
1 55315U 23010AY  26080.47101217  .00000342  00000+0  36443-4 0  9996
2 55315  70.0015 354.7622 0002623 271.2396  88.8463 14.98338497175024
STARLINK-5257           
1 55316U 23010AZ  26080.09526132  .00001022  00000+0  93427-4 0  9993
2 55316  70.0001 335.5980 0002916 277.5098  82.5729 14.98341269176351
STARLINK-5265           
1 55317U 23010BA  26080.11612160  .00000594  00000+0  57547-4 0  9990
2 55317  70.0000 335.6822 0003032 269.4633  90.6179 14.98332658176353
