[{"OBJECT_NAME":"STARLINK-5308","OBJECT_ID":"2023-010AH","EPOCH":"2026-03-21T12:12:18.863424","MEAN_MOTION":14.98336423,"ECCENTRICITY":0.00029163,"INCLINATION":70.0003,"RA_OF_ASC_NODE":354.492,"ARG_OF_PERICENTER":269.8795,"MEAN_ANOMALY":90.203,"EPHEMERIS_TYPE":0,"CLASSIFICATION_TYPE":"U","NORAD_CAT_ID":55300,"ELEMENT_SET_NO":999,"REV_AT_EPOCH":17504,"BSTAR":7.6319762e-5,"MEAN_MOTION_DOT":8.18e-6,"MEAN_MOTION_DDOT":0},{"OBJECT_NAME":"STARLINK-5321","OBJECT_ID":"2023-010AK","EPOCH":"2026-03-21T10:54:12.459168","MEAN_MOTION":14.98343506,"ECCENTRICITY":0.00030361,"INCLINATION":70.0003,"RA_OF_ASC_NODE":354.702,"ARG_OF_PERICENTER":270.694,"MEAN_ANOMALY":89.3871,"EPHEMERIS_TYPE":0,"CLASSIFICATION_TYPE":"U","NORAD_CAT_ID":55302,"ELEMENT_SET_NO":999,"REV_AT_EPOCH":17503,"BSTAR":-0.00013942555,"MEAN_MOTION_DOT":-1.757e-5,"MEAN_MOTION_DDOT":0},{"OBJECT_NAME":"STARLINK-5322","OBJECT_ID":"2023-010AL","EPOCH":"2026-03-21T12:36:41.397696","MEAN_MOTION":14.98341264,"ECCENTRICITY":0.00029044,"INCLINATION":70.0011,"RA_OF_ASC_NODE":14.4168,"ARG_OF_PERICENTER":268.1543,"MEAN_ANOMALY":91.9284,"EPHEMERIS_TYPE":0,"CLASSIFICATION_TYPE":"U","NORAD_CAT_ID":55303,"ELEMENT_SET_NO":999,"REV_AT_EPOCH":17455,"BSTAR":0.00011371711,"MEAN_MOTION_DOT":1.265e-5,"MEAN_MOTION_DDOT":0},{"OBJECT_NAME":"STARLINK-5318","OBJECT_ID":"2023-010AM","EPOCH":"2026-03-21T12:06:18.148608","MEAN_MOTION":14.98338272,"ECCENTRICITY":0.00028354,"INCLINATION":70.0003,"RA_OF_ASC_NODE":354.4767,"ARG_OF_PERICENTER":270.7312,"MEAN_ANOMALY":89.3522,"EPHEMERIS_TYPE":0,"CLASSIFICATION_TYPE":"U","NORAD_CAT_ID":55304,"ELEMENT_SET_NO":999,"REV_AT_EPOCH":17504,"BSTAR":9.7910565e-5,"MEAN_MOTION_DOT":1.076e-5,"MEAN_MOTION_DDOT":0},{"OBJECT_NAME":"STARLINK-5316","OBJECT_ID":"2023-010AN","EPOCH":"2026-03-21T03:59:40.238016","MEAN_MOTION":14.98340101,"ECCENTRICITY":0.00023557,"INCLINATION":70.0001,"RA_OF_ASC_NODE":355.7087,"ARG_OF_PERICENTER":266.8122,"MEAN_ANOMALY":93.2767,"EPHEMERIS_TYPE":0,"CLASSIFICATION_TYPE":"U","NORAD_CAT_ID":55305,"ELEMENT_SET_NO":999,"REV_AT_EPOCH":17499,"BSTAR":-5.499284e-5,"MEAN_MOTION_DOT":-7.49e-6,"MEAN_MOTION_DDOT":0},{"OBJECT_NAME":"STARLINK-5295","OBJECT_ID":"2023-010AP","EPOCH":"2026-03-21T09:41:48.123744","MEAN_MOTION":14.98335452,"ECCENTRICITY":0.0002831,"INCLINATION":69.9998,"RA_OF_ASC_NODE":335.0567,"ARG_OF_PERICENTER":271.9922,"MEAN_ANOMALY":88.0913,"EPHEMERIS_TYPE":0,"CLASSIFICATION_TYPE":"U","NORAD_CAT_ID":55306,"ELEMENT_SET_NO":999,"REV_AT_EPOCH":17552,"BSTAR":6.5203866e-5,"MEAN_MOTION_DOT":6.85e-6,"MEAN_MOTION_DDOT":0},{"OBJECT_NAME":"STARLINK-5288","OBJECT_ID":"2023-010AQ","EPOCH":"2026-03-21T09:47:48.730560","MEAN_MOTION":14.98339897,"ECCENTRICITY":0.0002884,"INCLINATION":69.9998,"RA_OF_ASC_NODE":335.0723,"ARG_OF_PERICENTER":269.8841,"MEAN_ANOMALY":90.1988,"EPHEMERIS_TYPE":0,"CLASSIFICATION_TYPE":"U","NORAD_CAT_ID":55307,"ELEMENT_SET_NO":999,"REV_AT_EPOCH":17552,"BSTAR":9.1399176e-5,"MEAN_MOTION_DOT":9.98e-6,"MEAN_MOTION_DDOT":0},{"OBJECT_NAME":"STARLINK-5315","OBJECT_ID":"2023-010AS","EPOCH":"2026-03-21T02:11:09.591072","MEAN_MOTION":14.98340485,"ECCENTRICITY":0.00028306,"INCLINATION":70.0003,"RA_OF_ASC_NODE":335.5695,"ARG_OF_PERICENTER":266.9913,"MEAN_ANOMALY":93.0922,"EPHEMERIS_TYPE":0,"CLASSIFICATION_TYPE":"U","NORAD_CAT_ID":55309,"ELEMENT_SET_NO":999,"REV_AT_EPOCH":17548,"BSTAR":0.00014079358,"MEAN_MOTION_DOT":1.588e-5,"MEAN_MOTION_DDOT":0},{"OBJECT_NAME":"STARLINK-5309","OBJECT_ID":"2023-010AT","EPOCH":"2026-03-21T03:05:14.863200","MEAN_MOTION":14.98337945,"ECCENTRICITY":0.00025954,"INCLINATION":69.9999,"RA_OF_ASC_NODE":335.6992,"ARG_OF_PERICENTER":266.0029,"MEAN_ANOMALY":94.0833,"EPHEMERIS_TYPE":0,"CLASSIFICATION_TYPE":"U","NORAD_CAT_ID":55310,"ELEMENT_SET_NO":999,"REV_AT_EPOCH":17548,"BSTAR":2.0506404e-5,"MEAN_MOTION_DOT":1.52e-6,"MEAN_MOTION_DDOT":0},{"OBJECT_NAME":"STARLINK-5312","OBJECT_ID":"2023-010AU","EPOCH":"2026-03-21T09:35:47.135040","MEAN_MOTION":14.98337668,"ECCENTRICITY":0.00026783,"INCLINATION":69.9998,"RA_OF_ASC_NODE":335.0415,"ARG_OF_PERICENTER":271.1973,"MEAN_ANOMALY":88.8879,"EPHEMERIS_TYPE":0,"CLASSIFICATION_TYPE":"U","NORAD_CAT_ID":55311,"ELEMENT_SET_NO":999,"REV_AT_EPOCH":17639,"BSTAR":0.00011545218,"MEAN_MOTION_DOT":1.285e-5,"MEAN_MOTION_DDOT":0},{"OBJECT_NAME":"STARLINK-5296","OBJECT_ID":"2023-010AV","EPOCH":"2026-03-21T12:00:00.999648","MEAN_MOTION":14.98308507,"ECCENTRICITY":0.0002936,"INCLINATION":70.0014,"RA_OF_ASC_NODE":334.5,"ARG_OF_PERICENTER":268.0057,"MEAN_ANOMALY":69.7666,"EPHEMERIS_TYPE":0,"CLASSIFICATION_TYPE":"U","NORAD_CAT_ID":55312,"ELEMENT_SET_NO":999,"REV_AT_EPOCH":564,"BSTAR":0.0040382535,"MEAN_MOTION_DOT":0.00048398,"MEAN_MOTION_DDOT":0},{"OBJECT_NAME":"STARLINK-5313","OBJECT_ID":"2023-010AW","EPOCH":"2026-03-21T10:53:53.626560","MEAN_MOTION":14.98334962,"ECCENTRICITY":0.00028388,"INCLINATION":70.0002,"RA_OF_ASC_NODE":334.828,"ARG_OF_PERICENTER":269.9602,"MEAN_ANOMALY":90.1232,"EPHEMERIS_TYPE":0,"CLASSIFICATION_TYPE":"U","NORAD_CAT_ID":55313,"ELEMENT_SET_NO":999,"REV_AT_EPOCH":17640,"BSTAR":5.8864258e-5,"MEAN_MOTION_DOT":6.1e-6,"MEAN_MOTION_DDOT":0},{"OBJECT_NAME":"STARLINK-5305","OBJECT_ID":"2023-010AX","EPOCH":"2026-03-21T01:23:06.105120","MEAN_MOTION":14.98332703,"ECCENTRICITY":0.00029183,"INCLINATION":69.9999,"RA_OF_ASC_NODE":335.8514,"ARG_OF_PERICENTER":269.6217,"MEAN_ANOMALY":90.4608,"EPHEMERIS_TYPE":0,"CLASSIFICATION_TYPE":"U","NORAD_CAT_ID":55314,"ELEMENT_SET_NO":999,"REV_AT_EPOCH":17634,"BSTAR":6.3370397e-5,"MEAN_MOTION_DOT":6.63e-6,"MEAN_MOTION_DDOT":0},{"OBJECT_NAME":"STARLINK-4623","OBJECT_ID":"2023-010AY","EPOCH":"2026-03-21T11:18:15.451488","MEAN_MOTION":14.98338497,"ECCENTRICITY":0.00026232,"INCLINATION":70.0015,"RA_OF_ASC_NODE":354.7622,"ARG_OF_PERICENTER":271.2396,"MEAN_ANOMALY":88.8463,"EPHEMERIS_TYPE":0,"CLASSIFICATION_TYPE":"U","NORAD_CAT_ID":55315,"ELEMENT_SET_NO":999,"REV_AT_EPOCH":17502,"BSTAR":3.6443299e-5,"MEAN_MOTION_DOT":3.42e-6,"MEAN_MOTION_DDOT":0},{"OBJECT_NAME":"STARLINK-5257","OBJECT_ID":"2023-010AZ","EPOCH":"2026-03-21T02:17:10.578048","MEAN_MOTION":14.98341269,"ECCENTRICITY":0.00029166,"INCLINATION":70.0001,"RA_OF_ASC_NODE":335.598,"ARG_OF_PERICENTER":277.5098,"MEAN_ANOMALY":82.5729,"EPHEMERIS_TYPE":0,"CLASSIFICATION_TYPE":"U","NORAD_CAT_ID":55316,"ELEMENT_SET_NO":999,"REV_AT_EPOCH":17635,"BSTAR":9.3426695e-5,"MEAN_MOTION_DOT":1.022e-5,"MEAN_MOTION_DDOT":0},{"OBJECT_NAME":"STARLINK-5265","OBJECT_ID":"2023-010BA","EPOCH":"2026-03-21T02:47:12.906240","MEAN_MOTION":14.98332658,"ECCENTRICITY":0.0003032,"INCLINATION":70,"RA_OF_ASC_NODE":335.6822,"ARG_OF_PERICENTER":269.4633,"MEAN_ANOMALY":90.6179,"EPHEMERIS_TYPE":0,"CLASSIFICATION_TYPE":"U","NORAD_CAT_ID":55317,"ELEMENT_SET_NO":999,"REV_AT_EPOCH":17635,"BSTAR":5.7546666e-5,"MEAN_MOTION_DOT":5.94e-6,"MEAN_MOTION_DDOT":0}]
